NORAD_CAT_ID,OBJECT_NAME,OBJECT_TYPE,EPOCH,MEAN_MOTION,ECCENTRICITY,INCLINATION,RA_OF_ASC_NODE,ARG_OF_PERICENTER,MEAN_ANOMALY,BSTAR,MEAN_MOTION_DOT,MEAN_MOTION_DDOT,TLE_LINE0,TLE_LINE1,TLE_LINE2,SEMIMAJOR_AXIS,PERIOD,APOGEE,PERIGEE,DECAYED
53169.0,STARLINK-4117,PAYLOAD,2022-09-28 22:00:00,15.73187302,0.0004365,53.2142,43.9423,350.2506,207.0522,-0.00082441,-0.00114775,0.0,0 STARLINK-4117,1 53169U 22083AP  22271.91667824 -.00114775  00000-0 -82441-3 0  9995,2 53169  53.2142  43.9423 0004365 350.2506 207.0522 15.73187302 12195,6727.931,91.534,352.733,346.86,0.0
53169.0,STARLINK-4117,PAYLOAD,2022-09-29 14:00:01,15.73120208,0.0004303999999999,53.2147,40.6434,347.8885,27.0787,0.00025532,0.00035253,0.0,0 STARLINK-4117,1 53169U 22083AP  22272.58334491  .00035253  00000-0  25532-3 0  9999,2 53169  53.2147  40.6434 0004304 347.8885  27.0787 15.73120208  1307,6728.123000000001,91.538,352.8830000000001,347.092,0.0
53169.0,STARLINK-4117,PAYLOAD,2022-09-29 22:00:00,15.73160913,0.000452,53.2147,38.9943,348.6512,115.1575,0.00043289,0.00060496,0.0,0 STARLINK-4117,1 53169U 22083AP  22272.91667824  .00060496  00000-0  43289-3 0  9991,2 53169  53.2147  38.9943 0004520 348.6512 115.1575 15.73160913  1309,6728.007,91.535,352.913,346.831,0.0
53169.0,STARLINK-4117,PAYLOAD,2022-09-30 06:00:02,15.73183812,0.0004348,53.2149,37.3429,348.7151,204.0707,0.00078246,0.00110615,0.0,0 STARLINK-4117,1 53169U 22083AP  22273.25002315  .00110615  00000-0  78246-3 0  9997,2 53169  53.2149  37.3429 0004348 348.7151 204.0707 15.73183812 12402,6727.941,91.534,352.732,346.881,0.0
53169.0,STARLINK-4117,PAYLOAD,2022-09-30 14:00:01,15.7327209,0.0004533999999999,53.2147,35.6951,349.3899,292.2845,-0.00030931,-0.00043971,0.0,0 STARLINK-4117,1 53169U 22083AP  22273.58334491 -.00043971  00000-0 -30931-3 0  9997,2 53169  53.2147  35.6951 0004534 349.3899 292.2845 15.73272090  1300,6727.69,91.529,352.605,346.504,0.0
53169.0,STARLINK-4117,PAYLOAD,2022-09-30 22:00:00,15.73260382,0.0004591,53.2142,34.0455,346.8421,23.8274,-0.00020484,-0.00029367,0.0,0 STARLINK-4117,1 53169U 22083AP  22273.91667824 -.00029367  00000-0 -20484-3 0  9998,2 53169  53.2142  34.0455 0004591 346.8421  23.8274 15.73260382  1308,6727.723000000001,91.53,352.677,346.499,0.0
53169.0,STARLINK-4117,PAYLOAD,2022-10-01 14:00:01,15.732696100000002,0.000446,53.2145,30.7463,342.4877,206.1415,-0.00052371,-0.0007375,0.0,0 STARLINK-4117,1 53169U 22083AP  22274.58334491 -.00073750  00000-0 -52371-3 0  9998,2 53169  53.2145  30.7463 0004460 342.4877 206.1415 15.73269610 12617,6727.696999999999,91.529,352.56199999999984,346.561,0.0
53169.0,STARLINK-4117,PAYLOAD,2022-10-01 22:00:00,15.73237559,0.0004516999999999,53.2145,29.0964,337.9353,299.6613,-0.00094238,-0.00131147,0.0,0 STARLINK-4117,1 53169U 22083AP  22274.91667824 -.00131147  00000-0 -94238-3 0  9997,2 53169  53.2145  29.0964 0004517 337.9353 299.6613 15.73237559  1303,6727.788000000001,91.531,352.69199999999995,346.61400000000015,0.0
53169.0,STARLINK-4117,PAYLOAD,2022-10-02 06:00:00,15.73114821,0.0004372,53.2148,27.445,334.701,31.8237,0.0001418,0.00019259,0.0,0 STARLINK-4117,1 53169U 22083AP  22275.25001157  .00019259  00000-0  14180-3 0  9991,2 53169  53.2148  27.4450 0004372 334.7010  31.8237 15.73114821 12713,6728.138000000001,91.538,352.945,347.061,0.0
53169.0,STARLINK-4117,PAYLOAD,2022-10-02 14:00:01,15.73128051,0.0004608,53.2157,25.7935,334.6046,120.7585,0.00046967,0.00065638,0.0,0 STARLINK-4117,1 53169U 22083AP  22275.58334491  .00065638  00000-0  46967-3 0  9997,2 53169  53.2157  25.7935 0004608 334.6046 120.7585 15.73128051  1309,6728.1,91.537,353.066,346.865,0.0
53169.0,STARLINK-4117,PAYLOAD,2022-10-02 22:00:00,15.73337037,0.0004535,53.2159,24.1386,324.7417,219.4719,-0.0044067,-0.00582221,0.0,0 STARLINK-4117,1 53169U 22083AP  22275.91667824 -.00582221  00000-0 -44067-2 0  9995,2 53169  53.2159  24.1386 0004535 324.7417 219.4719 15.73337037  1306,6727.505,91.525,352.42,346.319,0.0
53169.0,STARLINK-4117,PAYLOAD,2022-10-03 06:00:00,15.73022292,0.0005086,53.2172,22.4818,295.1438,337.9094,-0.0086355,-0.01081413,0.0,0 STARLINK-4117,1 53169U 22083AP  22276.25001157 -.01081413  00000-0 -86355-2 0  9998,2 53169  53.2172  22.4818 0005086 295.1438 337.9094 15.73022292 12878,6728.401999999999,91.544,353.689,346.845,0.0
53169.0,STARLINK-4117,PAYLOAD,2022-10-03 14:00:01,15.72241787,0.0007076,53.2167,20.8367,274.3733,86.9153,-0.0085989,-0.01046487,0.0,0 STARLINK-4117,1 53169U 22083AP  22276.58334491 -.01046487  00000-0 -85989-2 0  9998,2 53169  53.2167  20.8367 0007076 274.3733  86.9153 15.72241787  1316,6730.628000000002,91.589,357.256,347.731,0.0
53169.0,STARLINK-4117,PAYLOAD,2022-10-03 22:00:00,15.71570974,0.0006938,53.2165,19.1893,272.1077,176.4563,-0.009978,-0.0116532,0.0,0 STARLINK-4117,1 53169U 22083AP  22276.91667824 -.01165320  00000-0 -99780-2 0  9996,2 53169  53.2165  19.1893 0006938 272.1077 176.4563 15.71570974  1303,6732.544,91.628,359.08,349.73800000000006,0.0
53169.0,STARLINK-4117,PAYLOAD,2022-10-04 14:00:01,15.69971768,0.0001761,53.2173,15.9004,253.8745,6.6262,-0.0095818,-0.01054839,0.0,0 STARLINK-4117,1 53169U 22083AP  22277.58334491 -.01054839  00000-0 -95818-2 0  9991,2 53169  53.2173  15.9004 0001761 253.8745   6.6262 15.69971768 13088,6737.115,91.721,360.166,357.793,0.0
53169.0,STARLINK-4117,PAYLOAD,2022-10-04 22:00:00,15.69202368,5.79e-05,53.2173,14.255999999999998,273.4602,71.6278,-0.0097571,-0.01041164,0.0,0 STARLINK-4117,1 53169U 22083AP  22277.91667824 -.01041164  00000-0 -97571-2 0  9992,2 53169  53.2173  14.2560 0000579 273.4602  71.6278 15.69202368  1307,6739.316999999999,91.766,361.572,360.792,0.0
53169.0,STARLINK-4117,PAYLOAD,2022-10-05 14:00:01,15.67691037,0.0001177999999999,53.2171,10.98,90.2674,61.3037,-0.0105239999999999,-0.01053687,0.0,0 STARLINK-4117,1 53169U 22083AP  22278.58335648 -.01053687  00000-0 -10524-1 0  9997,2 53169  53.2171  10.9800 0001178  90.2674  61.3037 15.67691037 13243,6743.647,91.855,366.307,364.718,0.0
53169.0,STARLINK-4117,PAYLOAD,2022-10-05 22:00:00,15.66931646,0.0001167999999999,53.2173,9.3424,96.8564,136.4924,-0.010864,-0.01054306,0.0,0 STARLINK-4117,1 53169U 22083AP  22278.91667824 -.01054306  00000-0 -10864-1 0  9994,2 53169  53.2173   9.3424 0001168  96.8564 136.4924 15.66931646  1303,6745.826,91.899,368.479,366.903,0.0
53169.0,STARLINK-4117,PAYLOAD,2022-10-06 14:00:01,15.65413011,0.0001179,53.2176,6.0769,58.4918,335.8018,-0.011549,-0.0105382,0.0,0 STARLINK-4117,1 53169U 22083AP  22279.58334491 -.01053820  00000-0 -11549-1 0  9990,2 53169  53.2176   6.0769 0001179  58.4918 335.8018 15.65413011  1300,6750.188,91.989,372.849,371.257,0.0
53169.0,STARLINK-4117,PAYLOAD,2022-10-06 22:42:55,15.64584775,0.0001077,53.2172,4.3,74.2315,207.0676,-0.011925,-0.01052598,0.0,0 STARLINK-4117,1 53169U 22083AP  22279.94646991 -.01052598  00000-0 -11925-1 0  9990,2 53169  53.2172   4.3000 0001077  74.2315 207.0676 15.64584775  1304,6752.57,92.037,375.162,373.708,0.0
53169.0,STARLINK-4117,PAYLOAD,2022-10-07 14:00:01,15.63134839,0.0001211999999999,53.2172,1.1922,90.456,178.4105,-0.012639,-0.01069478,0.0,0 STARLINK-4117,1 53169U 22083AP  22280.58334491 -.01069478  00000-0 -12639-1 0  9999,2 53169  53.2172   1.1922 0001212  90.4560 178.4105 15.63134839  1304,6756.745,92.123,379.429,377.791,0.0
53169.0,STARLINK-4117,PAYLOAD,2022-10-07 22:00:00,15.62372685,0.0001085999999999,53.217,359.5654,69.5531,275.6813,-0.012968,-0.01065229,0.0,0 STARLINK-4117,1 53169U 22083AP  22280.91667824 -.01065229  00000-0 -12968-1 0  9990,2 53169  53.2170 359.5654 0001086  69.5531 275.6813 15.62372685  1306,6758.941999999999,92.168,381.541,380.073,0.0
53169.0,STARLINK-4117,PAYLOAD,2022-10-08 14:00:01,15.6085251,0.0001257,53.2172,356.3225,80.1648,55.0633,-0.0137259999999999,-0.01062838,0.0,0 STARLINK-4117,1 53169U 22083AP  22281.58334491 -.01062838  00000-0 -13726-1 0  9991,2 53169  53.2172 356.3225 0001257  80.1648  55.0633 15.60852510  1303,6763.33,92.257,386.045,384.345,0.0
53169.0,STARLINK-4117,PAYLOAD,2022-10-08 22:00:00,15.60094696,0.000123,53.2174,354.7011,74.4815,134.3755,-0.014182,-0.01066111,0.0,0 STARLINK-4117,1 53169U 22083AP  22281.91667824 -.01066111  00000-0 -14182-1 0  9992,2 53169  53.2174 354.7011 0001230  74.4815 134.3755 15.60094696 13765,6765.52,92.302,388.217,386.55300000000005,0.0
53169.0,STARLINK-4117,PAYLOAD,2022-10-09 14:00:01,15.58581284,0.0001125,53.2173,351.4699,67.9756,285.3951,-0.015137,-0.0107307999999999,0.0,0 STARLINK-4117,1 53169U 22083AP  22282.58334491 -.01073080  00000-0 -15137-1 0  9991,2 53169  53.2173 351.4699 0001125  67.9756 285.3951 15.58581284  1307,6769.899,92.392,392.526,391.003,0.0
53169.0,STARLINK-4117,PAYLOAD,2022-10-09 22:00:00,15.5781462,0.0001224,53.2176,349.8535,54.2241,10.0413,-0.0154139999999999,-0.01062441,0.0,0 STARLINK-4117,1 53169U 22083AP  22282.91667824 -.01062441  00000-0 -15414-1 0  9994,2 53169  53.2176 349.8535 0001224  54.2241  10.0413 15.57814620 13927,6772.12,92.437,394.814,393.156,0.0
53169.0,STARLINK-4117,PAYLOAD,2022-10-10 14:00:01,15.56293195,0.0001412,53.2176,346.6329,59.2757,144.0314,-0.016239,-0.0105757,0.0,0 STARLINK-4117,1 53169U 22083AP  22283.58334491 -.01057570  00000-0 -16239-1 0  9992,2 53169  53.2176 346.6329 0001412  59.2757 144.0314 15.56293195  1303,6776.533,92.528,399.355,397.441,0.0
53169.0,STARLINK-4117,PAYLOAD,2022-10-10 22:00:01,15.55537845,0.0001249,53.2175,345.0227,61.2255,210.2979,-0.016827,-0.01064676,0.0,0 STARLINK-4117,1 53169U 22083AP  22283.91668981 -.01064676  00000-0 -16827-1 0  9991,2 53169  53.2175 345.0227 0001249  61.2255 210.2979 15.55537845 14079,6778.727,92.572,401.43800000000016,399.745,0.0
53169.0,STARLINK-4117,PAYLOAD,2022-10-11 14:00:01,15.54015453,0.0001215,53.2175,341.8132,56.2084,348.8164,-0.017693,-0.01058783,0.0,0 STARLINK-4117,1 53169U 22083AP  22284.58334491 -.01058783  00000-0 -17693-1 0  9995,2 53169  53.2175 341.8132 0001215  56.2084 348.8164 15.54015453  1306,6783.153,92.663,405.842,404.194,0.0
